{"type": "FeatureCollection", "features": [ {"type": "Feature", "properties": {"norad_id": 60989, "name": "SENTINEL-2C", "group": "resource", "lat": 78.74453049833272, "lon": 19.71331478166916, "alt_km": 780.7921554500554, "timestamp": "2025-12-22T14:45:57.042850+00:00", "meta": {"OBJECT_NAME": "SENTINEL-2C", "OBJECT_ID": "2024-157A", "EPOCH": "2025-12-22T02:37:57.768096", "MEAN_MOTION": 14.30821207, "ECCENTRICITY": 0.00011935, "INCLINATION": 98.5671, "RA_OF_ASC_NODE": 68.4569, "ARG_OF_PERICENTER": 95.079, "MEAN_ANOMALY": 265.0529, "EPHEMERIS_TYPE": 0, "CLASSIFICATION_TYPE": "U", "NORAD_CAT_ID": 60989, "ELEMENT_SET_NO": 999, "REV_AT_EPOCH": 6766, "BSTAR": 7.3686296e-05, "MEAN_MOTION_DOT": 1.5e-06, "MEAN_MOTION_DDOT": 0}, "tle": {"line1": "1 60989U 24157A   25356.10969639  .00000150  00000+0  73686-4 0  9994", "line2": "2 60989  98.5671  68.4569 0001193  95.0790 265.0529 14.30821207 67664"}}, "geometry": {"type": "Point", "coordinates": [19.71331478166916, 78.74453049833272]}}, {"type": "Feature", "properties": {"norad_id": 61735, "name": "IONOSFERA-M 1", "group": "resource", "lat": 60.22157725090127, "lon": -149.20771431902173, "alt_km": 810.0939032609676, "timestamp": "2025-12-22T14:45:57.042860+00:00", "meta": {"OBJECT_NAME": "IONOSFERA-M 1", "OBJECT_ID": "2024-199A", "EPOCH": "2025-12-22T06:02:19.942080", "MEAN_MOTION": 14.22716101, "ECCENTRICITY": 4.952e-05, "INCLINATION": 98.7397, "RA_OF_ASC_NODE": 226.0266, "ARG_OF_PERICENTER": 8.5162, "MEAN_ANOMALY": 351.6024, "EPHEMERIS_TYPE": 0, "CLASSIFICATION_TYPE": "U", "NORAD_CAT_ID": 61735, "ELEMENT_SET_NO": 999, "REV_AT_EPOCH": 10254, "BSTAR": 4.8698348e-05, "MEAN_MOTION_DOT": 6.5e-07, "MEAN_MOTION_DDOT": 0}, "tle": {"line1": "1 61735U 24199A   25356.25161970  .00000065  00000+0  48698-4 0  9998", "line2": "2 61735  98.7397 226.0266 0000495   8.5162 351.6024 14.22716101102549"}}, "geometry": {"type": "Point", "coordinates": [-149.20771431902173, 60.22157725090127]}}, {"type": "Feature", "properties": {"norad_id": 61736, "name": "IONOSFERA-M 2", "group": "resource", "lat": -62.926270995534026, "lon": 28.78524102695647, "alt_km": 824.435536645291, "timestamp": "2025-12-22T14:45:57.042870+00:00", "meta": {"OBJECT_NAME": "IONOSFERA-M 2", "OBJECT_ID": "2024-199B", "EPOCH": "2025-12-22T06:52:12.226368", "MEAN_MOTION": 14.2271826, "ECCENTRICITY": 0.00018302, "INCLINATION": 98.7396, "RA_OF_ASC_NODE": 225.9733, "ARG_OF_PERICENTER": 98.3021, "MEAN_ANOMALY": 261.8365, "EPHEMERIS_TYPE": 0, "CLASSIFICATION_TYPE": "U", "NORAD_CAT_ID": 61736, "ELEMENT_SET_NO": 999, "REV_AT_EPOCH": 10567, "BSTAR": 4.7965486e-05, "MEAN_MOTION_DOT": 6.3e-07, "MEAN_MOTION_DDOT": 0}, "tle": {"line1": "1 61736U 24199B   25356.28625262  .00000063  00000+0  47965-4 0  9995", "line2": "2 61736  98.7396 225.9733 0001830  98.3021 261.8365 14.22718260105676"}}, "geometry": {"type": "Point", "coordinates": [28.78524102695647, -62.926270995534026]}}, {"type": "Feature", "properties": {"norad_id": 63772, "name": "BIOMASS", "group": "resource", "lat": -46.62603660240522, "lon": -7.155715590198696, "alt_km": 676.3589842989986, "timestamp": "2025-12-22T14:45:57.042880+00:00", "meta": {"OBJECT_NAME": "BIOMASS", "OBJECT_ID": "2025-090A", "EPOCH": "2025-12-22T05:33:07.604928", "MEAN_MOTION": 14.67537157, "ECCENTRICITY": 0.00010777, "INCLINATION": 98.0697, "RA_OF_ASC_NODE": 181.1027, "ARG_OF_PERICENTER": 82.3391, "MEAN_ANOMALY": 277.7936, "EPHEMERIS_TYPE": 0, "CLASSIFICATION_TYPE": "U", "NORAD_CAT_ID": 63772, "ELEMENT_SET_NO": 999, "REV_AT_EPOCH": 3473, "BSTAR": 0.00022220591, "MEAN_MOTION_DOT": 1.212e-05, "MEAN_MOTION_DDOT": 0}, "tle": {"line1": "1 63772U 25090A   25356.23133802  .00001212  00000+0  22221-3 0  9991", "line2": "2 63772  98.0697 181.1027 0001077  82.3391 277.7936 14.67537157 34731"}}, "geometry": {"type": "Point", "coordinates": [-7.155715590198696, -46.62603660240522]}}, {"type": "Feature", "properties": {"norad_id": 64694, "name": "GOSAT-GW (IBUKI GW)", "group": "resource", "lat": 75.2064950232024, "lon": -100.42627300382692, "alt_km": 660.7029023872192, "timestamp": "2025-12-22T14:45:57.042890+00:00", "meta": {"OBJECT_NAME": "GOSAT-GW (IBUKI GW)", "OBJECT_ID": "2025-141A", "EPOCH": "2025-12-22T06:13:55.733376", "MEAN_MOTION": 14.67563406, "ECCENTRICITY": 0.00014296, "INCLINATION": 98.0437, "RA_OF_ASC_NODE": 291.6005, "ARG_OF_PERICENTER": 84.4046, "MEAN_ANOMALY": 275.7322, "EPHEMERIS_TYPE": 0, "CLASSIFICATION_TYPE": "U", "NORAD_CAT_ID": 64694, "ELEMENT_SET_NO": 999, "REV_AT_EPOCH": 2589, "BSTAR": 0.00017800889, "MEAN_MOTION_DOT": 9.62e-06, "MEAN_MOTION_DDOT": 0}, "tle": {"line1": "1 64694U 25141A   25356.25967284  .00000962  00000+0  17801-3 0  9992", "line2": "2 64694  98.0437 291.6005 0001429  84.4046 275.7322 14.67563406 25891"}}, "geometry": {"type": "Point", "coordinates": [-100.42627300382692, 75.2064950232024]}}, {"type": "Feature", "properties": {"norad_id": 64876, "name": "IONOSFERA-M 3", "group": "resource", "lat": -61.87001241622771, "lon": 121.79995131952745, "alt_km": 828.9442079975997, "timestamp": "2025-12-22T14:45:57.042900+00:00", "meta": {"OBJECT_NAME": "IONOSFERA-M 3", "OBJECT_ID": "2025-155A", "EPOCH": "2025-12-22T06:52:06.009888", "MEAN_MOTION": 14.21443295, "ECCENTRICITY": 0.00019506, "INCLINATION": 98.5796, "RA_OF_ASC_NODE": 317.8826, "ARG_OF_PERICENTER": 44.4446, "MEAN_ANOMALY": 315.6888, "EPHEMERIS_TYPE": 0, "CLASSIFICATION_TYPE": "U", "NORAD_CAT_ID": 64876, "ELEMENT_SET_NO": 999, "REV_AT_EPOCH": 2127, "BSTAR": 5.5732244e-05, "MEAN_MOTION_DOT": 7.9e-07, "MEAN_MOTION_DDOT": 0}, "tle": {"line1": "1 64876U 25155A   25356.28618067  .00000079  00000+0  55732-4 0  9999", "line2": "2 64876  98.5796 317.8826 0001950  44.4446 315.6888 14.21443295 21279"}}, "geometry": {"type": "Point", "coordinates": [121.79995131952745, -61.87001241622771]}}, {"type": "Feature", "properties": {"norad_id": 64877, "name": "IONOSFERA-M 4", "group": "resource", "lat": 62.4401916523288, "lon": -58.692192664363134, "alt_km": 813.3941765715163, "timestamp": "2025-12-22T14:45:57.042910+00:00", "meta": {"OBJECT_NAME": "IONOSFERA-M 4", "OBJECT_ID": "2025-155B", "EPOCH": "2025-12-22T06:01:13.325088", "MEAN_MOTION": 14.21444384, "ECCENTRICITY": 0.0001364, "INCLINATION": 98.5795, "RA_OF_ASC_NODE": 317.7677, "ARG_OF_PERICENTER": 54.3088, "MEAN_ANOMALY": 305.8217, "EPHEMERIS_TYPE": 0, "CLASSIFICATION_TYPE": "U", "NORAD_CAT_ID": 64877, "ELEMENT_SET_NO": 999, "REV_AT_EPOCH": 2126, "BSTAR": 4.6857978e-05, "MEAN_MOTION_DOT": 6e-07, "MEAN_MOTION_DDOT": 0}, "tle": {"line1": "1 64877U 25155B   25356.25084867  .00000060  00000+0  46858-4 0  9991", "line2": "2 64877  98.5795 317.7677 0001364  54.3088 305.8217 14.21444384 21269"}}, "geometry": {"type": "Point", "coordinates": [-58.692192664363134, 62.4401916523288]}}, {"type": "Feature", "properties": {"norad_id": 64899, "name": "MICROCARB", "group": "resource", "lat": -35.00151975244495, "lon": -113.85069016360592, "alt_km": 662.9137907363393, "timestamp": "2025-12-22T14:45:57.042920+00:00", "meta": {"OBJECT_NAME": "MICROCARB", "OBJECT_ID": "2025-156A", "EPOCH": "2025-12-22T04:00:16.111296", "MEAN_MOTION": 14.72071696, "ECCENTRICITY": 0.00175613, "INCLINATION": 98.0014, "RA_OF_ASC_NODE": 71.3608, "ARG_OF_PERICENTER": 116.4521, "MEAN_ANOMALY": 243.8491, "EPHEMERIS_TYPE": 0, "CLASSIFICATION_TYPE": "U", "NORAD_CAT_ID": 64899, "ELEMENT_SET_NO": 999, "REV_AT_EPOCH": 2192, "BSTAR": 0.00011167733, "MEAN_MOTION_DOT": 6.54e-06, "MEAN_MOTION_DDOT": 0}, "tle": {"line1": "1 64899U 25156A   25356.16685314  .00000654  00000+0  11168-3 0  9994", "line2": "2 64899  98.0014  71.3608 0017561 116.4521 243.8491 14.72071696 21923"}}, "geometry": {"type": "Point", "coordinates": [-113.85069016360592, -35.00151975244495]}}, {"type": "Feature", "properties": {"norad_id": 64900, "name": "CO3D 3", "group": "resource", "lat": 14.734631597860924, "lon": -105.19089863898574, "alt_km": 506.1843522826939, "timestamp": "2025-12-22T14:45:57.042930+00:00", "meta": {"OBJECT_NAME": "CO3D 3", "OBJECT_ID": "2025-156B", "EPOCH": "2025-12-22T06:08:37.268160", "MEAN_MOTION": 15.20206821, "ECCENTRICITY": 0.00013541, "INCLINATION": 97.4341, "RA_OF_ASC_NODE": 72.4871, "ARG_OF_PERICENTER": 76.2175, "MEAN_ANOMALY": 283.9211, "EPHEMERIS_TYPE": 0, "CLASSIFICATION_TYPE": "U", "NORAD_CAT_ID": 64900, "ELEMENT_SET_NO": 999, "REV_AT_EPOCH": 2265, "BSTAR": 0.0002833908, "MEAN_MOTION_DOT": 6.073e-05, "MEAN_MOTION_DDOT": 0}, "tle": {"line1": "1 64900U 25156B   25356.25598690  .00006073  00000+0  28339-3 0  9996", "line2": "2 64900  97.4341  72.4871 0001354  76.2175 283.9211 15.20206821 22657"}}, "geometry": {"type": "Point", "coordinates": [-105.19089863898574, 14.734631597860924]}}, {"type": "Feature", "properties": {"norad_id": 64901, "name": "CO3D 4", "group": "resource", "lat": 15.585728319724758, "lon": -105.07171272200377, "alt_km": 505.1142479303335, "timestamp": "2025-12-22T14:45:57.042941+00:00", "meta": {"OBJECT_NAME": "CO3D 4", "OBJECT_ID": "2025-156C", "EPOCH": "2025-12-22T06:08:50.560800", "MEAN_MOTION": 15.20214251, "ECCENTRICITY": 0.00013282, "INCLINATION": 97.434, "RA_OF_ASC_NODE": 72.4871, "ARG_OF_PERICENTER": 164.9387, "MEAN_ANOMALY": 195.1888, "EPHEMERIS_TYPE": 0, "CLASSIFICATION_TYPE": "U", "NORAD_CAT_ID": 64901, "ELEMENT_SET_NO": 999, "REV_AT_EPOCH": 2265, "BSTAR": 0.00029882235, "MEAN_MOTION_DOT": 6.409e-05, "MEAN_MOTION_DDOT": 0}, "tle": {"line1": "1 64901U 25156C   25356.25614075  .00006409  00000+0  29882-3 0  9990", "line2": "2 64901  97.4340  72.4871 0001328 164.9387 195.1888 15.20214251 22658"}}, "geometry": {"type": "Point", "coordinates": [-105.07171272200377, 15.585728319724758]}}]}